[{"OBJECT_NAME":"STARLINK-34055","OBJECT_ID":"2025-092R","EPOCH":"2026-03-09T15:18:54.957312","MEAN_MOTION":15.27570771,"ECCENTRICITY":0.000183,"INCLINATION":42.9959,"RA_OF_ASC_NODE":173.0806,"ARG_OF_PERICENTER":290.3213,"MEAN_ANOMALY":69.7442,"EPHEMERIS_TYPE":0,"CLASSIFICATION_TYPE":"U","NORAD_CAT_ID":63819,"ELEMENT_SET_NO":999,"REV_AT_EPOCH":4860,"BSTAR":0.0013864,"MEAN_MOTION_DOT":0.00038075,"MEAN_MOTION_DDOT":0},{"OBJECT_NAME":"CZ-2C R\/B","OBJECT_ID":"2025-266D","EPOCH":"2026-03-09T20:29:03.778080","MEAN_MOTION":15.32844431,"ECCENTRICITY":0.00801532,"INCLINATION":52.0528,"RA_OF_ASC_NODE":275.4841,"ARG_OF_PERICENTER":115.4113,"MEAN_ANOMALY":245.5197,"EPHEMERIS_TYPE":0,"CLASSIFICATION_TYPE":"U","NORAD_CAT_ID":66548,"ELEMENT_SET_NO":999,"REV_AT_EPOCH":1696,"BSTAR":0.00054134058,"MEAN_MOTION_DOT":0.00018939,"MEAN_MOTION_DDOT":0}]
